COMMENT,ORIGINATOR,NORAD_CAT_ID,OBJECT_NAME,OBJECT_TYPE,CLASSIFICATION_TYPE,INTLDES,EPOCH,EPOCH_MICROSECONDS,MEAN_MOTION,ECCENTRICITY,INCLINATION,RA_OF_ASC_NODE,ARG_OF_PERICENTER,MEAN_ANOMALY,EPHEMERIS_TYPE,ELEMENT_SET_NO,REV_AT_EPOCH,BSTAR,MEAN_MOTION_DOT,MEAN_MOTION_DDOT,FILE,TLE_LINE0,TLE_LINE1,TLE_LINE2,OBJECT_ID,OBJECT_NUMBER,SEMIMAJOR_AXIS,PERIOD,APOGEE,PERIGEE,DECAYED
"GENERATED VIA SPACETRACK.ORG API","18 SPCS","48897","SPACEBEE-109","PAYLOAD","U","21059U","2023-11-06 22:04:07","520736","15.48679691","0.0002429","97.6091","93.5852","143.1802","216.9615","0","999","13136","0.0021237","0.00115063","0","4074934","0 SPACEBEE-109","1 48897U 21059U   23310.91953149  .00115063  00000-0  21237-2 0  9996","2 48897  97.6091  93.5852 0002429 143.1802 216.9615 15.48679691131368","2021-059U","48897","6798.724","92.982","422.241","418.938","0"
"GENERATED VIA SPACETRACK.ORG API","18 SPCS","48897","SPACEBEE-109","PAYLOAD","U","21059U","2023-11-06 22:04:07","520736","15.48679691","0.0002429","97.6091","93.5852","143.1802","216.9615","0","999","13136","0.0021237","0.00115063","0","4075225","0 SPACEBEE-109","1 48897U 21059U   23310.91953149  .00115063  00000-0  21237-2 0  9996","2 48897  97.6091  93.5852 0002429 143.1802 216.9615 15.48679691131368","2021-059U","48897","6798.724","92.982","422.241","418.938","0"
"GENERATED VIA SPACETRACK.ORG API","18 SPCS","48897","SPACEBEE-109","PAYLOAD","U","21059U","2023-11-07 08:55:23","954592","15.48803848","0.0002397","97.6091","94.0613","141.1927","218.9496","0","999","13143","0.002338","0.00127433","0","4076056","0 SPACEBEE-109","1 48897U 21059U   23311.37180503  .00127433  00000-0  23380-2 0  9998","2 48897  97.6091  94.0613 0002397 141.1927 218.9496 15.48803848131439","2021-059U","48897","6798.361","92.975","421.856","418.597","0"
"GENERATED VIA SPACETRACK.ORG API","18 SPCS","48897","SPACEBEE-109","PAYLOAD","U","21059U","2023-11-07 08:55:23","954592","15.48803848","0.0002397","97.6091","94.0613","141.1927","218.9496","0","999","13143","0.002338","0.00127433","0","4076432","0 SPACEBEE-109","1 48897U 21059U   23311.37180503  .00127433  00000-0  23380-2 0  9998","2 48897  97.6091  94.0613 0002397 141.1927 218.9496 15.48803848131439","2021-059U","48897","6798.361","92.975","421.856","418.597","0"
"GENERATED VIA SPACETRACK.ORG API","18 SPCS","48897","SPACEBEE-109","PAYLOAD","U","21059U","2023-11-07 22:52:41","360736","15.48923044","0.0002174","97.6094","94.6745","139.1223","221.019","0","999","13152","0.0019836","0.00108286","0","4077400","0 SPACEBEE-109","1 48897U 21059U   23311.95325649  .00108286  00000-0  19836-2 0  9990","2 48897  97.6094  94.6745 0002174 139.1223 221.0190 15.48923044131520","2021-059U","48897","6798.012","92.968","421.355","418.399","0"
"GENERATED VIA SPACETRACK.ORG API","18 SPCS","48897","SPACEBEE-109","PAYLOAD","U","21059U","2023-11-08 08:10:50","615040","15.49013066","0.000224","97.6093","95.0826","136.7195","223.4231","0","999","13158","0.001953","0.00106931","0","4078352","0 SPACEBEE-109","1 48897U 21059U   23312.34086360  .00106931  00000-0  19530-2 0  9994","2 48897  97.6093  95.0826 0002240 136.7195 223.4231 15.49013066131582","2021-059U","48897","6797.749","92.962","421.137","418.091","0"
"GENERATED VIA SPACETRACK.ORG API","18 SPCS","48897","SPACEBEE-109","PAYLOAD","U","21059U","2023-11-08 22:08:01","224960","15.49128671","0.0002107","97.6091","95.6962","132.5703","227.5726","0","999","13167","0.0018401","0.00101075","0","4078917","0 SPACEBEE-109","1 48897U 21059U   23312.92223640  .00101075  00000-0  18401-2 0  9992","2 48897  97.6091  95.6962 0002107 132.5703 227.5726 15.49128671131671","2021-059U","48897","6797.411","92.955","420.708","417.844","0"
"GENERATED VIA SPACETRACK.ORG API","18 SPCS","48897","SPACEBEE-109","PAYLOAD","U","21059U","2023-11-09 08:59:06","717120","15.49228","0.0002107","97.6092","96.1725","131.7724","228.3706","0","999","13174","0.0019277","0.00106331","0","4079735","0 SPACEBEE-109","1 48897U 21059U   23313.37438330  .00106331  00000-0  19277-2 0  9998","2 48897  97.6092  96.1725 0002107 131.7724 228.3706 15.49228000131741","2021-059U","48897","6797.120","92.950","420.417","417.553","0"
"GENERATED VIA SPACETRACK.ORG API","18 SPCS","48897","SPACEBEE-109","PAYLOAD","U","21059U","2023-11-09 08:59:06","717120","15.49228","0.0002107","97.6092","96.1725","131.7724","228.3706","0","999","13174","0.0019277","0.00106331","0","4080359","0 SPACEBEE-109","1 48897U 21059U   23313.37438330  .00106331  00000-0  19277-2 0  9998","2 48897  97.6092  96.1725 0002107 131.7724 228.3706 15.49228000131741","2021-059U","48897","6797.120","92.950","420.417","417.553","0"
"GENERATED VIA SPACETRACK.ORG API","18 SPCS","48897","SPACEBEE-109","PAYLOAD","U","21059U","2023-11-09 21:23:10","208832","15.49327789","0.0002004","97.6091","96.7177","126.6105","233.533","0","999","13182","0.0017726","0.00098006","0","4080838","0 SPACEBEE-109","1 48897U 21059U   23313.89109038  .00098006  00000-0  17726-2 0  9991","2 48897  97.6091  96.7177 0002004 126.6105 233.5330 15.49327789131823","2021-059U","48897","6796.828","92.944","420.055","417.331","0"
"GENERATED VIA SPACETRACK.ORG API","18 SPCS","48897","SPACEBEE-109","PAYLOAD","U","21059U","2023-11-09 21:23:10","208832","15.49327789","0.0002004","97.6091","96.7177","126.6105","233.533","0","999","13182","0.0017726","0.00098006","0","4081015","0 SPACEBEE-109","1 48897U 21059U   23313.89109038  .00098006  00000-0  17726-2 0  9991","2 48897  97.6091  96.7177 0002004 126.6105 233.5330 15.49327789131823","2021-059U","48897","6796.828","92.944","420.055","417.331","0"
"GENERATED VIA SPACETRACK.ORG API","18 SPCS","48897","SPACEBEE-109","PAYLOAD","U","21059U","2023-11-10 08:14:10","775328","15.4941949","0.0002036","97.6092","97.1942","125.0108","235.1334","0","999","13189","0.0016718","0.00092661","0","4082124","0 SPACEBEE-109","1 48897U 21059U   23314.34318027  .00092661  00000-0  16718-2 0  9993","2 48897  97.6092  97.1942 0002036 125.0108 235.1334 15.49419490131890","2021-059U","48897","6796.560","92.938","419.809","417.041","0"
"GENERATED VIA SPACETRACK.ORG API","18 SPCS","48897","SPACEBEE-109","PAYLOAD","U","21059U","2023-11-10 22:11:08","344896","15.49525584","0.0002014","97.6089","97.8075","118.7975","241.3478","0","999","13198","0.0015797","0.00087823","0","4082691","0 SPACEBEE-109","1 48897U 21059U   23314.92440214  .00087823  00000-0  15797-2 0  9991","2 48897  97.6089  97.8075 0002014 118.7975 241.3478 15.49525584131987","2021-059U","48897","6796.250","92.932","419.484","416.746","0"
"GENERATED VIA SPACETRACK.ORG API","18 SPCS","48897","SPACEBEE-109","PAYLOAD","U","21059U","2023-11-10 22:11:08","344896","15.49525584","0.0002014","97.6089","97.8075","118.7975","241.3478","0","999","13198","0.0015797","0.00087823","0","4082890","0 SPACEBEE-109","1 48897U 21059U   23314.92440214  .00087823  00000-0  15797-2 0  9991","2 48897  97.6089  97.8075 0002014 118.7975 241.3478 15.49525584131987","2021-059U","48897","6796.250","92.932","419.484","416.746","0"
"GENERATED VIA SPACETRACK.ORG API","18 SPCS","48897","SPACEBEE-109","PAYLOAD","U","21059U","2023-11-11 09:02:04","33248","15.49611717","0.0002031","97.6092","98.2839","117.6727","242.4729","0","999","13205","0.0015992","0.00089193","0","4083845","0 SPACEBEE-109","1 48897U 21059U   23315.37643557  .00089193  00000-0  15992-2 0  9995","2 48897  97.6092  98.2839 0002031 117.6727 242.4729 15.49611717132050","2021-059U","48897","6795.998","92.927","419.243","416.483","0"
"GENERATED VIA SPACETRACK.ORG API","18 SPCS","48897","SPACEBEE-109","PAYLOAD","U","21059U","2023-11-11 21:25:56","724096","15.49697584","0.0001799","97.609","98.8288","107.0792","253.0655","0","999","13213","0.0015242","0.00085217","0","4084458","0 SPACEBEE-109","1 48897U 21059U   23315.89301764  .00085217  00000-0  15242-2 0  9994","2 48897  97.6090  98.8288 0001799 107.0792 253.0655 15.49697584132138","2021-059U","48897","6795.747","92.921","418.835","416.389","0"
"GENERATED VIA SPACETRACK.ORG API","18 SPCS","48897","SPACEBEE-109","PAYLOAD","U","21059U","2023-11-12 03:37:52","132512","15.49736282","0.0001941","97.6094","99.1016","111.0675","249.0783","0","999","13217","0.0014605","0.00081727","0","4084683","0 SPACEBEE-109","1 48897U 21059U   23316.15129783  .00081727  00000-0  14605-2 0  9997","2 48897  97.6094  99.1016 0001941 111.0675 249.0783 15.49736282132179","2021-059U","48897","6795.634","92.919","418.818","416.180","0"
"GENERATED VIA SPACETRACK.ORG API","18 SPCS","48897","SPACEBEE-109","PAYLOAD","U","21059U","2023-11-12 08:16:48","290304","15.49769889","0.0001944","97.6095","99.306","109.7182","250.4278","0","999","13220","0.0013896","0.00077808","0","4085556","0 SPACEBEE-109","1 48897U 21059U   23316.34500336  .00077808  00000-0  13896-2 0  9991","2 48897  97.6095  99.3060 0001944 109.7182 250.4278 15.49769889132209","2021-059U","48897","6795.536","92.917","418.722","416.080","0"
"GENERATED VIA SPACETRACK.ORG API","18 SPCS","48897","SPACEBEE-109","PAYLOAD","U","21059U","2023-11-12 16:01:41","64960","15.49832311","0.0001999","97.6094","99.6471","106.7313","253.4157","0","999","13225","0.0019061","0.00107403","0","4085761","0 SPACEBEE-109","1 48897U 21059U   23316.66783640  .00107403  00000-0  19061-2 0  9992","2 48897  97.6094  99.6471 0001999 106.7313 253.4157 15.49832311132255","2021-059U","48897","6795.353","92.913","418.577","415.860","0"
"GENERATED VIA SPACETRACK.ORG API","18 SPCS","48897","SPACEBEE-109","PAYLOAD","U","21059U","2023-11-12 22:13:34","554432","15.49873979","0.0001966","97.6094","99.9197","104.237","255.9099","0","999","13229","0.0015766","0.00088739","0","4086163","0 SPACEBEE-109","1 48897U 21059U   23316.92609438  .00088739  00000-0  15766-2 0  9991","2 48897  97.6094  99.9197 0001966 104.2370 255.9099 15.49873979132294","2021-059U","48897","6795.231","92.911","418.432","415.760","0"
